CUTE-1 (CO-55)          
1 27844U 03031E   26079.45274330  .00000286  00000+0  14278-3 0  9994
2 27844  98.6778  89.1181 0010755  84.5370 275.7035 14.24274684179047
CUBESAT XI-IV (CO-57)   
1 27848U 03031J   26079.46721623  .00000255  00000+0  13103-3 0  9993
2 27848  98.6806  88.9162 0010641 100.7158 259.5219 14.23568656178753
CUBESAT XI-V            
1 28895U 05043F   26079.38553184  .00001541  00000+0  25140-3 0  9990
2 28895  98.2855 233.2132 0015196 125.4381 234.8247 14.72362546 88683
CUTE-1.7+APD II (CO-65) 
1 32785U 08021C   26079.45974446  .00004588  00000+0  29812-3 0  9992
2 32785  97.8224  59.1263 0008352 343.8565  16.2395 15.08513190971812
CANX-2                  
1 32790U 08021H   26079.41249028  .00004259  00000+0  30513-3 0  9990
2 32790  97.8580  57.5464 0010249 353.3334   6.7754 15.04905498971451
SEEDS II (CO-66)        
1 32791U 08021J   26079.45532674  .00013879  00000+0  48768-3 0  9996
2 32791  97.7521  73.3375 0000531 224.3798 135.7399 15.29505807973713
SWISSCUBE               
1 35932U 09051B   26079.22056587  .00000990  00000+0  20588-3 0  9999
2 35932  98.4090 345.5500 0007708 122.8421 237.3522 14.62286439876154
BEESAT-1                
1 35933U 09051C   26079.45839327  .00000840  00000+0  17901-3 0  9995
2 35933  98.4020 345.6104 0005982 132.8524 227.3180 14.61556371876227
ITUPSAT1                
1 35935U 09051E   26079.23491780  .00000760  00000+0  16739-3 0  9999
2 35935  98.4107 344.6675 0007962 146.2097 213.9612 14.60288955875758
TISAT 1                 
1 36799U 10035E   26079.30116089  .00014323  00000+0  52561-3 0  9999
2 36799  98.0663  18.2531 0002675 142.4232 217.7192 15.28080698854111
AEROCUBE 4.5A           
1 38767U 12048K   26079.34415162  .00064747  00000+0  65330-3 0  9993
2 38767  64.6383 342.9130 0039018 209.3678 150.5277 15.63996853358650
STRAND-1                
1 39090U 13009E   26079.42584735  .00000289  00000+0  11160-3 0  9996
2 39090  98.3895 261.8509 0009549 131.8347 228.3657 14.37103565684310
BRITE-AUSTRIA           
1 39091U 13009F   26079.40094019  .00000176  00000+0  74450-4 0  9993
2 39091  98.3964 261.0407 0010956 140.5673 219.6313 14.36502044684305
NEE-01 PEGASO           
1 39151U 13018B   26079.35545233  .00002454  00000+0  24050-3 0  9994
2 39151  98.1074 220.6700 0013960  97.1900 263.0906 14.93169743697445
POPACS 2                
1 39269U 13055E   26079.20089116  .00021641  00000+0  37225-3 0  9999
2 39269  80.9894 245.8569 0428838 119.2854 245.1935 14.88402899649967
POPACS 3                
1 39270U 13055F   26078.72575403  .00009860  00000+0  23836-3 0  9998
2 39270  81.0046 326.0711 0558547 342.2367  15.9959 14.54250291625546
ZACUBE-1 (TSHEPISOSAT)  
1 39417U 13066B   26079.40075956  .00002813  00000+0  22436-3 0  9993
2 39417  97.8160  41.2767 0043802 184.6572 175.4250 15.00414103667411
WNISAT-1                
1 39423U 13066H   26079.40665143  .00001352  00000+0  25350-3 0  9998
2 39423  97.7063 234.9345 0164212 151.1851 209.8542 14.57909638653795
TRITON-1                
1 39427U 13066M   26079.54726833  .00000893  00000+0  11358-3 0  9993
2 39427  97.8295 351.3875 0090922 162.2709 198.1712 14.81247200660963
GOMX-1                  
1 39430U 13066Q   26079.51784166  .00001024  00000+0  16114-3 0  9999
2 39430  97.6557 285.5480 0129418   2.9151 357.2781 14.69134730656890
CUBEBUG-2 (LO-74)       
1 39440U 13066AA  26079.42068765  .00003552  00000+0  33611-3 0  9999
2 39440  97.8835  28.1120 0057476 323.3226  36.4065 14.93075405663744
NEE-02 KRYSAOR          
1 39441U 13066AB  26079.28494184  .00002326  00000+0  26069-3 0  9999
2 39441  97.8831  19.1908 0066828   2.6791 357.4769 14.86230033662995
FUNCUBE-1 (AO-73)       
1 39444U 13066AE  26079.39048289  .00006574  00000+0  42344-3 0  9998
2 39444  97.8208  49.1124 0038308 143.4134 216.9722 15.08083615666276
UWE-3                   
1 39446U 13066AG  26079.42978807  .00004079  00000+0  35824-3 0  9995
2 39446  97.8626  35.0046 0047619 255.1980 104.3962 14.96293164664300
BRITE-CA1 (TORONTO)     
1 40020U 14033L   26079.36579647  .00001197  00000+0  18770-3 0  9991
2 40020  97.9585 210.0140 0078477 200.3901 159.4168 14.72494744629149
DUCHIFAT-1              
1 40021U 14033M   26079.34852707  .00040961  00000+0  70359-3 0  9994
2 40021  98.0609 127.0421 0005022  55.1422 305.0300 15.51031526641928
NANOSATC-BR1            
1 40024U 14033Q   26079.52364892  .00015520  00000+0  56181-3 0  9990
2 40024  98.0822 104.2149 0005344 122.3552 237.8204 15.28500740640422
QB50P1                  
1 40025U 14033R   26079.26630630  .00006023  00000+0  31078-3 0  9994
2 40025  98.1005  84.2654 0009539 158.6410 201.5221 15.16721112639543
QB50P2                  
1 40032U 14033Y   26079.43788845  .00006440  00000+0  35983-3 0  9995
2 40032  98.0742  70.8897 0009367 112.1535 248.0690 15.13852853639236
PERSEUS-M2              
1 40037U 14033AD  26079.46844814  .00001602  00000+0  15117-3 0  9994
2 40037  97.9876  28.2696 0010601 229.2190 130.8110 14.95201360637526
PERSEUS-M1              
1 40039U 14033AF  26079.38100418  .00002145  00000+0  20004-3 0  9996
2 40039  97.9568  22.1191 0010390 227.1776 132.8572 14.95299819637363
POLYITAN-1              
1 40042U 14033AJ  26079.46689888  .00013763  00000+0  47616-3 0  9998
2 40042  98.1032  97.5211 0009637  98.0882 262.1450 15.29983617640012
TIGRISAT                
1 40043U 14033AK  26079.37270971  .00001734  00000+0  20637-3 0  9997
2 40043  97.7693 231.5030 0049618   7.6455 352.5505 14.84777019632445
AEROCUBE 6A             
1 40045U 14033AM  26079.49229720  .00005918  00000+0  51194-3 0  9998
2 40045  97.7154 247.4899 0038092 313.8082  45.9991 14.96992900633343
AEROCUBE 6B             
1 40046U 14033AN  26079.44547580  .00004858  00000+0  40672-3 0  9992
2 40046  97.7115 247.0580 0037411 304.3078  55.4605 14.98368898633464
CANX-4                  
1 40055U 14034C   26079.31777424  .00000882  00000+0  12098-3 0  9995
2 40055  98.3258 311.3125 0011709 300.2179  59.7872 14.81086836631370
CANX-5                  
1 40056U 14034D   26079.38478492  .00000895  00000+0  12260-3 0  9991
2 40056  98.3261 311.4204 0011703 300.1575  59.8476 14.81103809622198
UKUBE-1                 
1 40074U 14037F   26079.47125362  .00009304  00000+0  54588-3 0  9992
2 40074  98.4236  73.5325 0003226  95.3343 264.8253 15.12006108635147
BRITE-PL2 (HEWELIUSZ)   
1 40119U 14049B   26079.52162940  .00002335  00000+0  22284-3 0  9999
2 40119  97.8992 190.9151 0014989  48.2686 311.9813 14.94235699628208
AEROCUBE 5C             
1 40965U 15058B   26079.37733607  .00002302  00000+0  21324-3 0  9994
2 40965  64.7680 178.7603 0130184  98.2364 263.3535 14.90933799352414
AEROCUBE 7              
1 40966U 15058C   26079.42072035  .00002884  00000+0  24216-3 0  9990
2 40966  64.7626 162.6955 0120095  97.2018 264.2767 14.94994909352682
FOX-1A (AO-85)          
1 40967U 15058D   26079.39557248  .00002505  00000+0  23453-3 0  9993
2 40967  64.7761 194.8017 0128592  91.6206 269.9640 14.90433789100331
SINOD-D 1               
1 40968U 15058E   26079.54268552  .00003714  00000+0  30837-3 0  9995
2 40968  64.7758 176.3509 0116981  88.7101 272.7412 14.95160489103408
SNAP-3 ALICE            
1 40970U 15058G   26079.51841508  .00072009  00000+0  14666-2 0  9997
2 40970  64.7563  46.7770 0036384  64.7582 295.7320 15.45110031103126
LMRST-SAT               
1 40971U 15058H   26079.39575894  .00002409  00000+0  22721-3 0  9995
2 40971  64.7766 190.9743 0130658  93.6222 267.9842 14.90065472100321
SNAP-3 EDDIE            
1 40972U 15058J   26079.31390429  .00048593  00000+0  95917-3 0  9998
2 40972  64.7495  38.7938 0037415  70.1533 290.3632 15.46111755105227
PROPCUBE 3              
1 40973U 15058K   26079.37825719  .00002667  00000+0  23179-3 0  9993
2 40973  64.7691 169.8698 0123105  95.3118 266.2055 14.93617221101536
BISONSAT                
1 40974U 15058L   26079.39233734  .00007215  00000+0  37657-3 0  9996
2 40974  64.7588 100.2788 0078549  86.1738 274.8361 15.14015348102169
SNAP-3 JIMI             
1 40975U 15058M   26079.42364741  .00003676  00000+0  26634-3 0  9994
2 40975  64.7648 140.3983 0105135  91.9254 269.3908 15.01257841100894
PROPCUBE 1 (FLORA)      
1 40976U 15058N   26079.33676582  .00002588  00000+0  25205-3 0  9998
2 40976  64.7748 210.4947 0129702  95.9042 265.6869 14.88715997103039
SINOD-D 3               
1 40977U 15058P   26079.39370354  .00003108  00000+0  27280-3 0  9997
2 40977  64.7736 192.9403 0118097  93.7473 267.7153 14.93314997101495
HORYU-4                 
1 41340U 16012D   26079.12452997  .00096968  00000+0  94609-3 0  9993
2 41340  30.9919 354.9225 0004793 255.2683 104.7439 15.64771156556747
RAVAN                   
1 41849U 16067B   26079.38352272  .00027831  00000+0  55235-3 0  9995
2 41849  98.0017 319.2121 0004880 326.3796  33.7142 15.46973295513930
CELTEE 1                
1 41850U 16067C   26079.55400852  .00005933  00000+0  28944-3 0  9990
2 41850  98.0795 300.0711 0001615 126.0361 234.1021 15.18728040512425
OPTICUBE 04             
1 41851U 16067D   26079.51594592  .00002907  00000+0  18657-3 0  9990
2 41851  98.0796 287.1419 0016865  60.3508 299.9397 15.09249407511792
AEROCUBE 8D             
1 41852U 16067E   26079.56881493  .00007907  00000+0  33892-3 0  9998
2 41852  98.0811 303.0198 0004897  84.8799 275.2995 15.23058134512577
AEROCUBE 8C             
1 41853U 16067F   26079.54187516  .00007936  00000+0  33780-3 0  9990
2 41853  98.0679 300.3354 0005744  21.6283 338.5194 15.23286579512562
CORVUS BC2              
1 42846U 17042X   26079.42726469  .00002145  00000+0  15221-3 0  9997
2 42846  97.3956 244.3106 0014356  59.6917 300.5729 15.05678163473700
CORVUS BC1              
1 42847U 17042Y   26079.43230333  .00002064  00000+0  14589-3 0  9995
2 42847  97.3992 245.0693 0012885  38.8750 321.3401 15.05888501473739
